NORAD_CAT_ID,OBJECT_NAME,OBJECT_TYPE,EPOCH,MEAN_MOTION,ECCENTRICITY,INCLINATION,RA_OF_ASC_NODE,ARG_OF_PERICENTER,MEAN_ANOMALY,BSTAR,MEAN_MOTION_DOT,MEAN_MOTION_DDOT,TLE_LINE0,TLE_LINE1,TLE_LINE2,SEMIMAJOR_AXIS,PERIOD,APOGEE,PERIGEE,DECAYED
52476.0,STARLINK-3835,PAYLOAD,2024-01-21 22:52:43,15.08839323,0.0001553,53.2173,300.7575,67.336,292.7796,9.1251e-05,1.165e-05,0.0,0 STARLINK-3835,1 52476U 22049AB  24021.95327563  .00001165  00000-0  91251-4 0  9995,2 52476  53.2173 300.7575 0001553  67.3360 292.7796 15.08839323 96215,6917.882,95.438,540.822,538.673,0.0
52476.0,STARLINK-3835,PAYLOAD,2024-01-22 02:03:28,15.0885595,0.0001565,53.2176,300.1624,67.2297,292.886,-0.00029084,-4.916e-05,0.0,0 STARLINK-3835,1 52476U 22049AB  24022.08574628 -.00004916  00000-0 -29084-3 0  9999,2 52476  53.2176 300.1624 0001565  67.2297 292.8860 15.08855950 96237,6917.832,95.437,540.779,538.614,0.0
52476.0,STARLINK-3835,PAYLOAD,2024-01-22 22:43:30,15.08836605,0.0001902,53.2182,296.2982,62.2845,297.834,2.2512e-05,7e-07,0.0,0 STARLINK-3835,1 52476U 22049AB  24022.94688085  .00000070  00000-0  22512-4 0  9992,2 52476  53.2182 296.2982 0001902  62.2845 297.8340 15.08836605 96363,6917.891,95.438,541.072,538.44,0.0
52476.0,STARLINK-3835,PAYLOAD,2024-01-23 01:54:16,15.08843356,0.0001608,53.2196,295.7022,76.9339,283.1832,0.00010105,1.321e-05,0.0,0 STARLINK-3835,1 52476U 22049AB  24023.07935686  .00001321  00000-0  10105-3 0  9993,2 52476  53.2196 295.7022 0001608  76.9339 283.1832 15.08843356 95308,6917.87,95.437,540.848,538.623,0.0
52476.0,STARLINK-3835,PAYLOAD,2024-01-23 22:34:16,15.08847615,0.0001832,53.2185,291.8369,70.6551,289.464,0.00012725,1.738e-05,0.0,0 STARLINK-3835,1 52476U 22049AB  24023.94047287  .00001738  00000-0  12725-3 0  9992,2 52476  53.2185 291.8369 0001832  70.6551 289.4640 15.08847615 96515,6917.857,95.437,540.989,538.455,0.0
52476.0,STARLINK-3835,PAYLOAD,2024-01-24 00:09:40,15.08849181,0.0001981,53.218,291.5398,66.2643,293.8557,0.00019429,2.806e-05,0.0,0 STARLINK-3835,1 52476U 22049AB  24024.00671433  .00002806  00000-0  19429-3 0  9991,2 52476  53.2180 291.5398 0001981  66.2643 293.8557 15.08849181 96524,6917.852,95.437,541.088,538.347,0.0
52476.0,STARLINK-3835,PAYLOAD,2024-01-24 22:25:04,15.088404,0.0001578,53.2163,287.376,93.1623,266.955,3.3107e-05,2.39e-06,0.0,0 STARLINK-3835,1 52476U 22049AB  24024.93407783  .00000239  00000-0  33107-4 0  9996,2 52476  53.2163 287.3760 0001578  93.1623 266.9550 15.08840400 96664,6917.879,95.438,540.836,538.653,0.0
52476.0,STARLINK-3835,PAYLOAD,2024-01-25 00:00:27,15.08841009,0.0001612,53.2175,287.0783,96.6614,263.4561,1.6787e-05,-2.1e-07,0.0,0 STARLINK-3835,1 52476U 22049AB  24025.00031724 -.00000021  00000-0  16787-4 0  9998,2 52476  53.2175 287.0783 0001612  96.6614 263.4561 15.08841009 95597,6917.877,95.437,540.857,538.627,0.0
52476.0,STARLINK-3835,PAYLOAD,2024-01-25 22:15:51,15.08844654,0.0001618,53.2178,282.9205,107.5097,252.6072,-4.7596e-05,-1.046e-05,0.0,0 STARLINK-3835,1 52476U 22049AB  24025.92767949 -.00001046  00000-0 -47596-4 0  9995,2 52476  53.2178 282.9205 0001618 107.5097 252.6072 15.08844654 96818,6917.866,95.437,540.85,538.612,0.0
52476.0,STARLINK-3835,PAYLOAD,2024-01-25 23:51:14,15.08846536,0.0001696,53.2181,282.6206,110.1138,250.0037,-1.9562e-05,-5.99e-06,0.0,0 STARLINK-3835,1 52476U 22049AB  24025.99391698 -.00000599  00000-0 -19562-4 0  9990,2 52476  53.2181 282.6206 0001696 110.1138 250.0037 15.08846536 96827,6917.86,95.437,540.899,538.552,0.0
52476.0,STARLINK-3835,PAYLOAD,2024-01-26 22:06:38,15.08836877,0.0001845,53.2186,278.4592,115.6951,244.4232,0.00013194,1.812e-05,0.0,0 STARLINK-3835,1 52476U 22049AB  24026.92128192  .00001812  00000-0  13194-3 0  9992,2 52476  53.2186 278.4592 0001845 115.6951 244.4232 15.08836877 95888,6917.89,95.438,541.031,538.479,0.0
52476.0,STARLINK-3835,PAYLOAD,2024-01-27 21:57:25,15.08840901,0.000184,53.2184,274.0006,119.8017,240.3158,8.5888e-05,1.079e-05,0.0,0 STARLINK-3835,1 52476U 22049AB  24027.91488186  .00001079  00000-0  85888-4 0  9999,2 52476  53.2184 274.0006 0001840 119.8017 240.3158 15.08840901 97115,6917.878,95.437,541.016,538.47,0.0
52476.0,STARLINK-3835,PAYLOAD,2024-01-28 01:08:11,15.08842605,0.0001484,53.2175,273.3995,97.1656,262.9505,8.472e-05,1.061e-05,0.0,0 STARLINK-3835,1 52476U 22049AB  24028.04736109  .00001061  00000-0  84720-4 0  9990,2 52476  53.2175 273.3995 0001484  97.1656 262.9505 15.08842605 96056,6917.872,95.437,540.764,538.711,0.0
52476.0,STARLINK-3835,PAYLOAD,2024-01-28 20:12:50,15.08836145,0.0001458,53.2177,269.8291,89.9189,270.197,3.6995e-05,3.01e-06,0.0,0 STARLINK-3835,1 52476U 22049AB  24028.84224821  .00000301  00000-0  36995-4 0  9998,2 52476  53.2177 269.8291 0001458  89.9189 270.1970 15.08836145 96170,6917.892,95.438,540.766,538.749,0.0
52476.0,STARLINK-3835,PAYLOAD,2024-01-28 21:48:13,15.08836833,0.000147,53.2174,269.5314,88.7215,271.3945,3.927e-05,3.37e-06,0.0,0 STARLINK-3835,1 52476U 22049AB  24028.90848766  .00000337  00000-0  39270-4 0  9993,2 52476  53.2174 269.5314 0001470  88.7215 271.3945 15.08836833 97261,6917.89,95.438,540.772,538.738,0.0
52476.0,STARLINK-3835,PAYLOAD,2024-01-29 00:58:59,15.08840109,0.0001487,53.2177,268.9349,84.8333,275.2829,6.1956e-05,6.98e-06,0.0,0 STARLINK-3835,1 52476U 22049AB  24029.04096503  .00000698  00000-0  61956-4 0  9999,2 52476  53.2177 268.9349 0001487  84.8333 275.2829 15.08840109 97288,6917.88,95.438,540.774,538.716,0.0
52476.0,STARLINK-3835,PAYLOAD,2024-01-30 00:49:45,15.08849348,0.0001526,53.2175,264.4741,80.2895,279.8269,0.00013492,1.86e-05,0.0,0 STARLINK-3835,1 52476U 22049AB  24030.03455506  .00001860  00000-0  13492-3 0  9995,2 52476  53.2175 264.4741 0001526  80.2895 279.8269 15.08849348 96359,6917.852,95.437,540.772,538.661,0.0
52476.0,STARLINK-3835,PAYLOAD,2024-01-30 19:54:26,15.08816161,0.0001252,53.2159,260.9067,99.434,260.6794,-0.00016076,-2.844e-05,0.0,0 STARLINK-3835,1 52476U 22049AB  24030.82946871 -.00002844  00000-0 -16076-3 0  9998,2 52476  53.2159 260.9067 0001252  99.4340 260.6794 15.08816161 96477,6917.953,95.439,540.684,538.952,0.0
52476.0,STARLINK-3835,PAYLOAD,2024-01-30 21:29:49,15.0881647,0.0001511,53.2164,260.6102,80.9857,279.1306,-0.00013971,-2.509e-05,0.0,0 STARLINK-3835,1 52476U 22049AB  24030.89570981 -.00002509  00000-0 -13971-3 0  9999,2 52476  53.2164 260.6102 0001511  80.9857 279.1306 15.08816470 97564,6917.952,95.439,540.863,538.772,0.0
52476.0,STARLINK-3835,PAYLOAD,2024-01-31 14:59:02,15.08837315,0.0001454,53.2165,257.332,119.5735,240.5402,4.0186e-05,3.52e-06,0.0,0 STARLINK-3835,1 52476U 22049AB  24031.62433293  .00000352  00000-0  40186-4 0  9996,2 52476  53.2165 257.3320 0001454 119.5735 240.5402 15.08837315 97672,6917.889,95.438,540.759,538.748,0.0
52476.0,STARLINK-3835,PAYLOAD,2024-02-01 00:31:22,15.0871854,0.0001414,53.2162,255.5595,104.783,255.3319,0.0018413,0.0002904,0.0,0 STARLINK-3835,1 52476U 22049AB  24032.02179149  .00029040  00000-0  18413-2 0  9999,2 52476  53.2162 255.5595 0001414 104.7830 255.3319 15.08718540 96657,6918.252,95.445,541.095,539.138,0.0
52476.0,STARLINK-3835,PAYLOAD,2024-02-01 18:00:35,15.08852034,0.0001272,53.2173,252.289,82.1566,277.957,0.00021949,3.208e-05,0.0,0 STARLINK-3835,1 52476U 22049AB  24032.75040844  .00003208  00000-0  21949-3 0  9995,2 52476  53.2173 252.2890 0001272  82.1566 277.9570 15.08852034 96766,6917.844,95.437,540.589,538.829,0.0
52476.0,STARLINK-3835,PAYLOAD,2024-02-01 21:11:21,15.08855777,0.0001283,53.2171,251.694,90.5712,269.5427,0.00025645,3.798e-05,0.0,0 STARLINK-3835,1 52476U 22049AB  24032.88288476  .00003798  00000-0  25645-3 0  9995,2 52476  53.2171 251.6940 0001283  90.5712 269.5427 15.08855777 97868,6917.832,95.437,540.585,538.81,0.0
52476.0,STARLINK-3835,PAYLOAD,2024-02-02 00:22:07,15.08852757,0.0001256,53.2161,251.0966,84.4041,275.7095,0.00036109,5.465e-05,0.0,0 STARLINK-3835,1 52476U 22049AB  24033.01536467  .00005465  00000-0  36109-3 0  9997,2 52476  53.2161 251.0966 0001256  84.4041 275.7095 15.08852757 97883,6917.841,95.437,540.575,538.838,0.0
52476.0,STARLINK-3835,PAYLOAD,2024-02-02 19:26:45,15.08846082,0.0001234,53.2159,247.5295,93.3981,266.7152,-1.0313e-05,-4.52e-06,0.0,0 STARLINK-3835,1 52476U 22049AB  24033.81025006 -.00000452  00000-0 -10313-4 0  9990,2 52476  53.2159 247.5295 0001234  93.3981 266.7152 15.08846082 96925,6917.862,95.437,540.58,538.873,0.0
52476.0,STARLINK-3835,PAYLOAD,2024-02-03 00:12:54,15.08846788,0.0001202,53.2152,246.6368,56.5092,303.6015,-3.1109e-06,-3.37e-06,0.0,0 STARLINK-3835,1 52476U 22049AB  24034.00896956 -.00000337  00000-0 -31109-5 0  9991,2 52476  53.2152 246.6368 0001202  56.5092 303.6015 15.08846788 98034,6917.86,95.437,540.556,538.893,0.0
52476.0,STARLINK-3835,PAYLOAD,2024-02-03 19:17:32,15.08845513,0.0001221,53.2153,243.0681,92.7146,267.3986,-5.0445e-05,-1.091e-05,0.0,0 STARLINK-3835,1 52476U 22049AB  24034.80384702 -.00001091  00000-0 -50445-4 0  9991,2 52476  53.2153 243.0681 0001221  92.7146 267.3986 15.08845513 98158,6917.864,95.437,540.573,538.884,0.0
52476.0,STARLINK-3835,PAYLOAD,2024-02-04 12:46:47,15.08840352,0.0001205,53.2151,239.7966,96.6496,263.4633,0.00010967,1.458e-05,0.0,0 STARLINK-3835,1 52476U 22049AB  24035.53248957  .00001458  00000-0  10967-3 0  9992,2 52476  53.2151 239.7966 0001205  96.6496 263.4633 15.08840352 97181,6917.879,95.438,540.578,538.911,0.0
52476.0,STARLINK-3835,PAYLOAD,2024-02-04 19:08:19,15.08839374,0.0001221,53.2151,238.6065,97.5576,262.5555,0.00010772,1.427e-05,0.0,0 STARLINK-3835,1 52476U 22049AB  24035.79745035  .00001427  00000-0  10772-3 0  9999,2 52476  53.2151 238.6065 0001221  97.5576 262.5555 15.08839374 98306,6917.882,95.438,540.592,538.903,0.0
52476.0,STARLINK-3835,PAYLOAD,2024-02-05 06:16:01,15.08841414,0.0001209,53.2151,236.5248,85.3274,274.7856,0.0001152,1.546e-05,0.0,0 STARLINK-3835,1 52476U 22049AB  24036.26112999  .00001546  00000-0  11520-3 0  9993,2 52476  53.2151 236.5248 0001209  85.3274 274.7856 15.08841414 98376,6917.876,95.437,540.577,538.905,0.0
